ONEWEB-0387             
1 49313U 21090AL  24097.40528075  .00000025  00000+0  30300-4 0  9991
2 49313  87.9157  74.0465 0002357  86.8482 273.2921 13.20771451123988
ONEWEB-0388             
1 49314U 21090AM  24097.41780880  .00001090  00000+0  26895-2 0  9992
2 49314  87.9101 104.5601 0001929  85.1876 274.9477 13.19719528120663
ONEWEB-0389             
1 50469U 21132A   24097.46474992  .00000094  00000+0  20981-3 0  9995
2 50469  87.9233 165.3922 0002593 100.8828 259.2596 13.17648834112504
ONEWEB-0390             
1 50470U 21132B   24097.46632971  .00000137  00000+0  31938-3 0  9992
2 50470  87.9233 165.3998 0002357 109.2334 250.9053 13.17649607112507
ONEWEB-0391             
1 50471U 21132C   24097.46791258  .00000049  00000+0  93032-4 0  9993
2 50471  87.9240 165.3767 0002532  96.1724 263.9696 13.17649290112507
ONEWEB-0392             
1 50472U 21132D   24097.57390999  .00000029  00000+0  41123-4 0  9995
2 50472  87.9229 165.3667 0002476 101.1821 258.9589 13.17652611112557
ONEWEB-0393             
1 50473U 21132E   24097.47120934  .00000054  00000+0  10540-3 0  9991
2 50473  87.9236 165.3557 0002476  99.8577 260.2834 13.17648811112539
ONEWEB-0394             
1 50474U 21132F   24097.38675191  .00000128  00000+0  29099-3 0  9993
2 50474  87.9147 135.0669 0002162  93.6671 266.4709 13.18685632115926
ONEWEB-0395             
1 50475U 21132G   24097.51724265  .00000493  00000+0  13558-2 0  9993
2 50475  87.9032 180.5262 0002337 104.0990 256.0398 13.11421198110640
ONEWEB-0396             
1 50476U 21132H   24097.38043208  .00000116  00000+0  26254-3 0  9990
2 50476  87.9153 135.0626 0002180  91.2735 268.8647 13.18685521115961
ONEWEB-0397             
1 50477U 21132J   24097.54641135  .00000061  00000+0  12318-3 0  9997
2 50477  87.9154 135.0309 0002220  90.6208 269.5179 13.18685484115960
ONEWEB-0398             
1 50478U 21132K   24097.48477001 -.00000378  00000+0 -11024-2 0  9995
2 50478  87.9026 180.5147 0002372 112.4767 247.6612 13.11420191110537
ONEWEB-0399             
1 50479U 21132L   24097.47017105  .00000017  00000+0  10921-4 0  9995
2 50479  87.9028 180.5333 0001975  92.0792 268.0562 13.11415648110527
ONEWEB-0400             
1 50480U 21132M   24097.14647226  .00000093  00000+0  20361-3 0  9996
2 50480  87.9148 135.1163 0002144 102.3976 257.7396 13.18685060115908
ONEWEB-0401             
1 50481U 21132N   24097.56853557 -.00000017  00000+0 -75119-4 0  9999
2 50481  87.9148 135.0305 0001843  88.3110 271.8233 13.18685652115964
ONEWEB-0402             
1 50482U 21132P   24097.38199542  .00000094  00000+0  20684-3 0  9996
2 50482  87.9151 135.0655 0001795  93.2692 266.8645 13.18688791115961
ONEWEB-0403             
1 50483U 21132Q   24097.32984166  .00000030  00000+0  43331-4 0  9990
2 50483  87.9150 135.0814 0002143  88.2718 271.8660 13.18687709115915
ONEWEB-0404             
1 50484U 21132R   24097.52863952  .00000580  00000+0  15998-2 0  9998
2 50484  87.9037 180.4884 0002455  97.1247 263.0160 13.11417755110629
ONEWEB-0405             
1 50485U 21132S   24097.34565836  .00000157  00000+0  36530-3 0  9995
2 50485  87.9151 135.0675 0001859  82.7901 277.3442 13.18687862116313
ONEWEB-0406             
1 50486U 21132T   24097.56221902 -.00000019  00000+0 -81285-4 0  9990
2 50486  87.9152 135.0344 0002480  95.7378 264.4037 13.18685216115970
ONEWEB-0407             
1 50487U 21132U   24097.55589588 -.00000008  00000+0 -53990-4 0  9997
2 50487  87.9147 135.0409 0002007  89.5351 270.6011 13.18685898115915
ONEWEB-0409             
1 50488U 21132V   24097.52699171  .00000592  00000+0  16358-2 0  9996
2 50488  87.9028 180.4915 0002712 102.6753 257.4678 13.11418257110515
ONEWEB-0412             
1 50489U 21132W   24097.39306368  .00000093  00000+0  20317-3 0  9992
2 50489  87.9152 135.0691 0001867  79.4770 280.6572 13.18687240115985
ONEWEB-0413             
1 50490U 21132X   24097.54956811  .00000048  00000+0  89379-4 0  9999
2 50490  87.9153 135.0515 0001683  86.7172 273.4153 13.18684629115945
ONEWEB-0414             
1 50491U 21132Y   24097.38358010  .00000085  00000+0  18230-3 0  9997
2 50491  87.9140 135.0654 0002186  84.7778 275.3604 13.18688769115957
ONEWEB-0417             
1 50492U 21132Z   24097.54325005  .00000057  00000+0  11183-3 0  9993
2 50492  87.9155 135.0318 0002378  96.1351 264.0052 13.18685360115954
ONEWEB-0418             
1 50493U 21132AA  24097.55258809  .00000092  00000+0  20023-3 0  9994
2 50493  87.9151 135.0358 0002627  94.2236 265.9196 13.18684276116015
ONEWEB-0419             
1 50494U 21132AB  24097.57011968  .00000007  00000+0 -14966-4 0  9997
2 50494  87.9149 135.0520 0002381 101.5596 258.5804 13.18685119115933
ONEWEB-0420             
1 50495U 21132AC  24097.38516231  .00000060  00000+0  11913-3 0  9996
2 50495  87.9148 135.0975 0001665  95.7443 264.3879 13.18687589115903
ONEWEB-0421             
1 50496U 21132AD  24097.37885590  .00000099  00000+0  21943-3 0  9999
2 50496  87.9155 135.0590 0002062  83.1755 276.9612 13.18686543115941
ONEWEB-0424             
1 50497U 21132AE  24097.56538157  .00000021  00000+0  19380-4 0  9993
2 50497  87.9151 135.0315 0002348 108.3047 251.8340 13.18684897115999
ONEWEB-0426             
1 50498U 21132AF  24097.37568406  .00000063  00000+0  12741-3 0  9992
2 50498  87.9146 135.0891 0002629  85.1111 275.0321 13.18684745115910
ONEWEB-0427             
1 50499U 21132AG  24097.33614083 -.00002453  00000+0 -62566-2 0  9998
2 50499  87.9148 135.0736 0002613  90.2704 269.8728 13.18696876115931
ONEWEB-0429             
1 50500U 21132AH  24097.55114513  .00000007  00000+0 -13740-4 0  9992
2 50500  87.9153 135.0323 0001989  95.1343 265.0017 13.18683882115932
ONEWEB-0430             
1 50501U 21132AJ  24097.38832981  .00000117  00000+0  26439-3 0  9999
2 50501  87.9151 135.0718 0002014 109.8575 250.2774 13.18686879115956
ONEWEB-0432             
1 50502U 21132AK  24097.34407076  .00000082  00000+0  17459-3 0  9992
2 50502  87.9151 135.0742 0001992  98.9087 261.2271 13.18686094115902
ONEWEB-0440             
1 50503U 21132AL  24097.33142320  .00000025  00000+0  30635-4 0  9999
2 50503  87.9154 135.0634 0001748  78.6521 281.4808 13.18685738115895
ONEWEB-0450             
1 50504U 21132AM  24097.55286905  .00000022  00000+0  23073-4 0  9997
2 50504  87.9152 135.0476 0001709 101.1469 258.9855 13.18686522115958
ONEWEB-0410             
1 51622U 22012A   24097.48375559  .00000098  00000+0  21908-3 0  9990
2 51622  87.9230 165.3734 0003534  85.1249 275.0286 13.17653191108129
ONEWEB-0411             
1 51623U 22012B   24097.56472953  .00000683  00000+0  19195-2 0  9990
2 51623  87.9001 195.5459 0002152 117.1732 242.9615 13.10407978104301
ONEWEB-0415             
1 51624U 22012C   24097.56140701  .00000097  00000+0  24198-3 0  9993
2 51624  87.8996 195.5719 0002199 114.1681 245.9676 13.10421722105588
ONEWEB-0416             
1 51625U 22012D   24097.57300368  .00000415  00000+0  11539-2 0  9990
2 51625  87.8999 195.5602 0001991 103.7539 256.3810 13.10370292104342
ONEWEB-0422             
1 51626U 22012E   24097.41727765 -.00000353  00000+0 -94183-3 0  9998
2 51626  87.9234 165.3848 0001353  99.8215 260.3069 13.17650489108229
ONEWEB-0423             
1 51627U 22012F   24097.48689225  .00000070  00000+0  14645-3 0  9993
2 51627  87.9235 165.3709 0002035  98.2418 261.8945 13.17647591108121
ONEWEB-0425             
1 51628U 22012G   24097.50656820  .00000244  00000+0  66393-3 0  9992
2 51628  87.8992 195.5591 0002052  93.3080 266.8282 13.10331654104336
ONEWEB-0428             
1 51629U 22012H   24097.56304941  .00000648  00000+0  18202-2 0  9996
2 51629  87.9000 195.5623 0001634 112.7307 247.3993 13.10415612104304
ONEWEB-0431             
1 51630U 22012J   24097.53289503 -.00000206  00000+0 -62803-3 0  9990
2 51630  87.8994 195.5706 0002072 126.7211 233.4106 13.10229124104353
ONEWEB-0434             
1 51631U 22012K   24097.50987790  .00000088  00000+0  21685-3 0  9990
2 51631  87.8994 195.5846 0001697 104.3215 255.8100 13.10317411104334
ONEWEB-0435             
1 51632U 22012L   24097.51815040 -.00000350  00000+0 -10406-2 0  9992
2 51632  87.8996 195.5736 0001511 110.8075 249.3214 13.10284530104324
ONEWEB-0436             
1 51633U 22012M   24097.47898915  .00000109  00000+0  24651-3 0  9998
2 51633  87.9230 165.3801 0001813 100.7979 259.3356 13.17649321108109
ONEWEB-0438             
1 51634U 22012N   24097.50160149  .00001338  00000+0  37977-2 0  9993
2 51634  87.8998 195.5773 0002021  99.6999 260.4357 13.10357033104359
ONEWEB-0439             
1 51635U 22012P   24097.50491203  .00001093  00000+0  30947-2 0  9990
2 51635  87.8997 195.5609 0001979 107.9022 252.2321 13.10342483104339
ONEWEB-0442             
1 51636U 22012Q   24097.47028024  .00000035  00000+0  55903-4 0  9990
2 51636  87.9232 165.4139 0002917  98.1824 261.9638 13.17650227108091
ONEWEB-0443             
1 51637U 22012R   24097.49005602  .00000035  00000+0  56254-4 0  9990
2 51637  87.9236 165.4168 0001619  91.1659 268.9658 13.17649629108144
ONEWEB-0444             
1 51638U 22012S   24097.57133768  .00000026  00000+0  37233-4 0  9991
2 51638  87.8992 195.5732 0001740 102.8667 257.2655 13.10376222104354
ONEWEB-0445             
1 51639U 22012T   24097.51649699 -.00000128  00000+0 -40194-3 0  9995
2 51639  87.8985 195.5595 0002308 106.5665 253.5716 13.10291978104355
ONEWEB-0446             
1 51640U 22012U   24097.56968987 -.00000374  00000+0 -11065-2 0  9993
2 51640  87.8996 195.5666 0002255 109.0740 251.0632 13.10379541105647
ONEWEB-0448             
1 51641U 22012V   24097.49826833  .00000605  00000+0  16979-2 0  9993
2 51641  87.8996 195.5817 0001773 101.8872 258.2454 13.10371396104309
ONEWEB-0449             
1 51642U 22012W   24097.50325542  .00001240  00000+0  35171-2 0  9998
2 51642  87.8991 195.5800 0002150  98.6207 261.5164 13.10350802104317
